STARLINK-30539          
1 58004U 23153P   26068.04611581 -.00012867  00000+0 -47046-3 0  9998
2 58004  42.9977  70.1915 0000797 178.2383 181.8471 15.26767353134794
FALCONSAT-10            
1 58291U 23174AM  26068.70247784  .00006748  00000+0  25969-3 0  9991
2 58291  97.3865 145.7938 0008932 169.5942 190.5483 15.26670596129582
